#cP2021 10 20  0  0  0.00000000      96 ORBIT IGb14 HLM  IGS
## 2180 259200.00000000   900.00000000 59507 0.0000000000000
+   32   G01G02G03G04G05G06G07G08G09G10G11G12G13G14G15G16G17
+        G18G19G20G21G22G23G24G25G26G27G28G29G30G31G32  0  0
+          0  0  0  0  0  0  0  0  0  0  0  0  0  0  0  0  0
+          0  0  0  0  0  0  0  0  0  0  0  0  0  0  0  0  0
+          0  0  0  0  0  0  0  0  0  0  0  0  0  0  0  0  0
++         2  2  2  2  2  2  2  2  2  2  3  2  2  2  2  2  2
++         2  2  1  2  1  2  3  1  2  1  2  2  2  2  1  0  0
++         0  0  0  0  0  0  0  0  0  0  0  0  0  0  0  0  0
++         0  0  0  0  0  0  0  0  0  0  0  0  0  0  0  0  0
++         0  0  0  0  0  0  0  0  0  0  0  0  0  0  0  0  0
%c G  cc GPS ccc cccc cccc cccc cccc ccccc ccccc ccccc ccccc
%c cc cc ccc ccc cccc cccc cccc cccc ccccc ccccc ccccc ccccc
%f  1.2500000  1.025000000  0.00000000000  0.000000000000000
%f  0.0000000  0.000000000  0.00000000000  0.000000000000000
%i    0    0    0    0      0      0      0      0         0
%i    0    0    0    0      0      0      0      0         0
/* FINAL ORBIT COMBINATION FROM WEIGHTED AVERAGE OF:        
/* cod emr esa gfz grg jpl mit ngs sio                      
/* REFERENCED TO IGS TIME (IGST) AND TO WEIGHTED MEAN POLE: 
/* PCV:IGS14_2178 OL/AL:FES2004  NONE     Y  ORB:CMB CLK:CMB
*  2021 10 20 13 30  0.00000000
PG01   3108.820707  14455.044625 -22333.764561    534.006053  5  4  3  96       
PG02  18786.753616 -15060.102580  11959.171788   -638.336467  7  4  3  76       
PG03  10086.915407  21759.595846 -11629.111713   -331.612836  7  5  7  90       
PG04   1143.721784  23695.064117  11874.616813   -203.405819  4  3  5  87       
PG05   2806.058990 -16860.835852  20121.606385    -58.299655  5  2  2  97       
PG06  25935.594980  -5747.007323  -1109.336434     98.758151  6  4  4  93       
PG07  18886.196646   8139.314489  17441.979837    265.479523  5  3  3  88       
PG08  -6052.298221  25664.489044   -946.281560    -40.823001  3  3  2  94       
PG09  10081.043420  15233.174749  19199.914497   -361.882234  4  3  3  82       
PG10 -21259.012488  -8280.123413 -13718.377343   -227.989215  4  2  4  88       
PG11  21226.820911 -11763.125133  10766.817698     21.230739  9  8  7  59       
PG12  -7441.961858 -22305.729818 -12730.263207   -114.290869  6  2     76       
PG13  13199.786262 -22444.004051   4664.176291    202.346715  4  4  2  72       
PG14  20949.265442   8676.747532 -13875.962801    -22.634540  4  3  5  60       
PG15   2673.367737 -26199.418302  -1852.983686   -112.582230  6  3  4  66       
PG16  -7815.277894  13397.399951  21246.002104   -410.202572  6  1  3  69       
PG17  14844.128815   1260.332490 -21554.231213    521.854234  5  5  2  51       
PG18 -19761.807489  -6941.742612  16380.327912    307.652176  7  6  6  91       
PG19  16946.494165  -7789.549250 -19109.687781     68.335910  6  5  1  89       
PG20  12746.928732  -9710.495374  21126.359601    518.538350  4     3  83       
PG21  -6022.615701  16284.071589 -19246.334022    148.374216  3  6  4  96       
PG22   4106.528111  19814.475384 -17135.703644   -484.740681  3  3  5  92       
PG23 -20552.728064 -16509.156744  -3601.926142     42.832567  5  5  3  67       
PG24   1103.579538 -16616.939324 -20890.630206    256.439600 10  8  8  71       
PG25 -16402.568917 -20740.596189  -4026.022792    227.441046     3  3  67       
PG26 -17785.978473   2935.550852  19532.912991    146.846374  2  3  4  73       
PG27 -12185.287128  21670.495903   8614.651521   -208.691460  5  2  4  83       
PG28  18405.784992   2863.785456 -18308.780058    478.942077  5  7  3  84       
PG29  -5970.857137 -18570.310019  17952.325109   -428.939117  2  3  2  70       
PG30  25295.886707    593.839666   8530.761165   -484.084199  8  4  6  35       
PG31 -25967.624061   6620.322513    963.088888   -145.923465  6  4  4 104       
PG32 -16033.829738   3135.363052 -20792.469864    -12.260796     3  3  49       
*  2021 10 20 13 45  0.00000000
PG01    714.500921  15090.754110 -22084.946156    533.996520  5  4  3  87       
PG02  19918.596239 -15275.548683   9461.370378   -638.338156  8  5  3  90       
PG03   8924.568815  20885.605625 -13959.507973   -331.624563  7  5  7  79       
PG04    592.230025  24804.898874   9380.787975   -203.405329  4  4  5  94       
PG05   4651.577298 -15338.707013  20985.866877    -58.300575  5  2  2  94       
PG06  25698.838655  -5492.763472  -3991.064073     98.765745  6  4  4  95       
PG07  16990.433464   8799.338344  18990.623643    265.485130  4  4  3  95       
PG08  -6298.416793  25548.543323   1937.926863    -40.824219  3  3  2  89       
PG09   9465.308947  17276.698809  17730.279364   -361.882256  5  3  3  83       
PG10 -22183.167270  -9400.267846 -11377.731989   -227.996546  4  1  4  74       
PG11  22337.581382 -11779.799704   8195.950407     21.230582  9  9  7  81       
PG12  -6292.017890 -21269.147460 -14960.861457   -114.295580  6  2     74       
PG13  13160.342902 -21694.422390   7430.894064    202.351678  4  4  2  65       
PG14  21798.855448   9878.434277 -11578.170283    -22.641228  3  3  6  78       
PG15   3042.883328 -26164.702052    957.632351   -112.579871  5  3  4  75       
PG16  -9501.972578  11535.454529  21682.662071   -410.208062  6  2  3  72       
PG17  14091.097001   3716.310671 -21769.489284    521.859254  5  5  3  48       
PG18 -17892.181437  -7581.379730  18140.989125    307.647466  5  6  6  89       
PG19  16278.551247  -5680.740806 -20421.664856     68.340291  6  5     77       
PG20  14656.371903  -8259.493234  20472.431933    518.537877  4     4  77       
PG21  -8209.073828  16920.670281 -17837.465148    148.375528  3  6  4 101       
PG22   2361.596058  18671.723240 -18647.060639   -484.732452  3  3  5  75       
PG23 -20576.793901 -16848.340119   -755.693762     42.828370  5  5  3  54       
PG24   3303.152480 -17312.883154 -20028.760405    256.444751 10  8  8  90       
PG25 -15822.510097 -20503.616775  -6773.805316    227.446508     2  3  60       
PG26 -19332.174834   1407.639851  18218.728785    146.849905  2  3  4  77       
PG27 -12121.405968  20484.129853  11202.595116   -208.695837  5  3  4  63       
PG28  19658.386328   4558.615644 -16617.129442    478.935341  5  7  4  78       
PG29  -5242.568071 -20388.075451  16112.011119   -428.944176  3  3  2  64       
PG30  24295.573725   1138.320979  11016.681615   -484.087351  8  3  6  73       
PG31 -25988.773623   6385.510465  -1855.061385   -145.925405  5  4  3 104       
PG32 -15528.174909    745.397592 -21403.222410    -12.264575  2  2  3  67       
*  2021 10 20 14  0  0.00000000
PG01  -1597.308972  15846.413248 -21464.465204    533.986905  5  4  3 100       
PG02  20778.472149 -15432.127770   6805.549611   -638.339676  8  6  2  94       
PG03   7527.231120  19913.816631 -16052.333078   -331.636202  7  4  7  62       
PG04    161.976982  25656.885480   6724.888226   -203.404859  4  4  5  83       
PG05   6632.462851 -13865.172862  21482.716975    -58.301458  4  3  2  89       
PG06  25172.171246  -5117.545199  -6804.250697     98.773336  5  4  4  82       
PG07  14984.366133   9608.651474  20226.697662    265.490626  4  4  3  92       
PG08  -6496.535465  25122.608612   4788.113716    -40.824932  3  3  2  70       
PG09   8984.712510  19167.030759  15953.580511   -361.882392  5  3  3  78       
PG10 -22956.126204 -10288.869739  -8843.092756   -228.003924  4  2  4  69       
PG11  23158.567782 -11770.891334   5483.858372     21.230451 10  9  6  79       
PG12  -4920.137696 -20131.233302 -16939.550806   -114.300588  6  3     72       
PG13  13065.509096 -20650.388560  10067.954683    202.356749  4  5  3  81       
PG14  22510.556197  10850.283500  -9081.695609    -22.647952  3  2  5  80       
PG15   3396.178346 -25828.753832   3751.346511   -112.577257  5  3  4  63       
PG16 -11301.467626   9748.361445  21736.585409   -410.214005  5  2  4  71       
PG17  13471.149793   6211.793762 -21594.423768    521.864526  5  5  3  72       
PG18 -15886.489050  -8378.052081  19590.305452    307.642761  4  5  6  92       
PG19  15692.702828  -3417.889583 -21388.751477     68.344750  6  6     68       
PG20  16555.936337  -6951.083514  19463.760347    518.538009  4     4  74       
PG21 -10192.850170  17590.551872 -16098.424059    148.376506  3  6  4  94       
PG22    435.474655  17526.466292 -19835.119395   -484.724424  3  4  5  81       
PG23 -20367.744225 -16983.285302   2103.477948     42.824180  6  6  2  59       
PG24   5365.309132 -18069.100686 -18826.852024    256.449883 10  9  9  68       
PG25 -15002.211421 -20101.785449  -9407.732091    227.451948     3  3  47       
PG26 -20818.948269     60.966402  16592.476520    146.853433  2  3  4  87       
PG27 -12069.243827  19015.001239  13592.117220   -208.700212  5  4  3  60       
PG28  20848.458170   6030.167535 -14625.573865    478.928901  5  7  4  99       
PG29  -4673.075582 -22025.546270  13992.838424   -428.949198  3  3  2  69       
PG30  23067.952108   1814.815848  13315.970036   -484.090522  8  3  6  72       
PG31 -25724.157978   6055.356953  -4642.225555   -145.927478  5  4  3 102       
PG32 -15137.231737  -1713.297389 -21641.228420    -12.268360  2  1  3  67       
EOF
